#dP2023  7  4 12  0  0.00000000      96 __u+U ITR00 EXT  IAC
## 2269 216000.00000000   900.00000000 60129 0.5000000000000
+  119   C06C07C08C09C10C11C12C13C14C16C19C20C21C22C23C24C25
+        C26C27C28C29C30C32C33C34C35C36C37C38C39C40C41C42C43
+        C44C45C46E02E03E04E05E07E08E09E10E11E12E13E14E15E18
+        E19E21E24E25E26E27E30E31E33E34E36G01G02G03G04G05G06
+        G07G08G09G10G11G12G13G14G15G16G17G18G19G20G21G22G23
+        G24G25G26G27G28G29G30G31G32J02J03J04R01R02R03R04R05
+        R07R08R09R11R12R13R14R15R16R17R18R19R20R21R22R24R25
++         0  0  0  0  0  0  0  0  0  0  0  0  0  0  0  0  0
++         0  0  0  0  0  0  0  0  0  0  0  0  0  0  0  0  0
++         0  0  0  0  0  0  0  0  0  0  0  0  0  0  0  0  0
++         0  0  0  0  0  0  0  0  0  0  0  0  0  0  0  0  0
++         0  0  0  0  0  0  0  0  0  0  0  0  0  0  0  0  0
++         0  0  0  0  0  0  0  0  0  0  0  0  0  0  0  0  0
++         0  0  0  0  0  0  0  0  0  0  0  0  0  0  0  0  0
%c M  cc GPS ccc cccc cccc cccc cccc ccccc ccccc ccccc ccccc
%c cc cc ccc ccc cccc cccc cccc cccc ccccc ccccc ccccc ccccc
%f  0.0000000  0.000000000  0.00000000000  0.000000000000000
%f  0.0000000  0.000000000  0.00000000000  0.000000000000000
%i    0    0    0    0      0      0      0      0         0
%i    0    0    0    0      0      0      0      0         0
/* IAC                                ULTRA-RAPID PREDICTION
/* S/V CLOCKS ARE ALIGNED TO GNSS TIME                      
/* G:C1WC2W R:C1PC2P E:C1XC5X C:C2IC6I J:C1CC2S             
/* PCV:IGS20_2247 OL/AL:FES2004  NONE     YN ORB:CoN CLK:CoN
*  2023 07 05  0  0  0.00000000
PC06  -3470.643380  35932.162674 -21508.120216   -165.858998
PC07  -9450.118827  26455.821599  31479.689829   -273.405104
PC08 -17639.187767  35658.986965 -14276.402204    438.959279
PC09   3362.563003  39786.129153 -12174.242528    455.261730
PC10  -2407.517020  27342.104935  32305.634250   -105.036874
PC11  12292.709786  24769.129145   3922.293110    709.141859
PC12  -2212.994031  20195.266226  19168.354252    762.929186
PC13 -11685.964821  35728.016671 -19231.401558    309.307465
PC14  10655.786304  14077.670352 -21612.223634    513.281953
PC16  -3055.381905  35664.785060 -21816.166287     18.426885
PC19 -19920.356521 -10081.278104  16746.915485   -933.894267
PC20  -1488.788801 -15613.254880  23090.627953    458.323376
PC21 -19380.373568  12124.810803 -15971.938795   -930.731440
PC22 -27844.076408   1544.262530    355.307401   -410.804139
PC23  18469.437907  -3784.920290  20585.175378   -957.068529
PC24  -5337.501877  25798.269455   9231.800254    136.973882
PC25  10274.016519  14563.730239  21471.026176    161.178647
PC26 -15834.899616  21883.669307  -7087.355108   -144.175320
PC27   9247.104338 -14155.466550 -22225.625734    164.874601
PC28  18909.588081   3132.599248 -20284.393892    122.755539
PC29 -18720.375875 -20006.182267   5280.081346    142.931713
PC30  -6267.459265 -24101.399541 -12622.660208     -1.877109
PC32  19387.493100 -12262.787873  15916.248785   -542.032317
PC33  19950.063005  10000.697801 -16766.979111   -907.045273
PC34   7348.078909  24345.493668  11456.474259    207.698067
PC35 -19242.051731  -2925.199430  19995.767595    594.969752
PC36  -9400.658700 -15463.965305 -21212.117785   -346.785761
PC37  16735.362002 -20825.386554   8043.133625   -790.108671
PC38 -21420.078756  35891.086843  -6129.612617     89.466603
PC39  -6646.351450  31351.295906 -27215.395972     -3.659036
PC40 -15285.660985  19934.194204  33818.732481    -28.358250
PC41  27866.641021  -1247.805139   -980.572853   -908.441267
PC42    -69.721755  15738.060450 -23002.592295   -624.126571
PC43  18381.329326  20503.112280  -4484.359609     29.225601
PC44  -8976.447386  14375.956548  22148.157099    158.677141
PC45 -18488.251155   4392.797101 -20436.065326   -118.556830
PC46   4289.152417 -25463.760636 -10530.431510    -66.471347
PE02 -25966.232317   5127.449243 -13263.779839     47.895306
PE03 -26678.599099  -4962.277814 -11804.839109    -32.869729
PE04  15115.136195 -10378.910186  23249.284290   -159.516556
PE05 -22789.081892 -17643.545973   6743.543035     -3.407047
PE07   5286.883593  19833.013011 -21323.685443    -57.587641
PE08 -15348.479335  10025.831664 -23232.840381   -109.380364
PE09  -5164.454909 -19673.486241  21504.575086    -73.336029
PE10   5916.458342 -27001.333052 -10594.142864   -546.123750
PE11   -667.343341 -29597.318765   -330.236290   2401.900912
PE12  11186.937356 -20496.204756 -18212.169297   -605.682927
PE13    263.982001  29578.678513   1041.192712    -19.315693
PE14  15741.544499 -13217.467741 -23500.422535    273.013476
PE15 -11255.229232  20190.090603  18484.063182    -34.578007
PE18    606.073544  18747.757880  18044.999549    258.675886
PE19  27078.768532   7131.499512   9608.878434  -2149.259422
PE21  14721.300679  10029.266446  23643.604206   -538.842610
PE24   6353.029998 -20393.889145 -20494.079880   -191.673130
PE25 -14406.366105 -10280.983977 -23717.315168   -607.805222
PE26  11885.108642  20927.617677 -17239.455250    153.544870
PE27  -5626.600277  20238.528654  20862.132448    -91.167332
PE30 -22783.325155  18134.120395   5335.293947   -309.334516
PE31  22440.419929 -18405.951198  -5808.764840      0.295870
PE33  16031.729155   1029.402665 -24866.077325   -442.354178
PE34 -16027.265613   -826.501400  24857.764108    -54.356717
PE36 -11462.145812 -21537.643495  16757.928152    -81.139156
PG01 -13233.752094  10954.049579  19807.649675    174.560762
PG02 -14863.702861   4584.800256  22019.291716   -579.385571
PG03 -23115.199454  12939.116691    367.156106   -245.539100
PG04 -17551.993632   4874.109310 -19357.493638     86.638432
PG05  21908.011028  -1508.339825 -15200.080436   -133.652538
PG06   5558.195313  24324.842817  -8905.229434    580.685052
PG07  -6432.127122  23767.532329  -8832.191238    134.222591
PG08 -23968.014948  -4221.376996  11023.275735   -130.576307
PG09  -8287.020505  12938.642810 -21739.061409   -120.047293
PG10    123.137716 -16361.347912  21029.593968    -43.865983
PG11  12873.237024  12590.401654 -19529.049262   -262.467086
PG12  24542.579207  -9411.660051   3215.826884   -396.754605
PG13  22627.035209  12921.120958   5517.283916    542.876131
PG14  -3785.593065  17755.163709  19351.483357    112.018947
PG15  24121.369512   1052.153128  10886.624529     55.008354
PG16 -20037.365870  -4091.665306 -17490.701695   -484.423724
PG17   7963.013143  19151.812080  16957.970318    720.227963
PG18   5082.783184 -25104.932873  -6696.561840   -333.312835
PG19  14800.785341  19571.943521  10342.800594    339.528193
PG20  15667.083568   6096.718910 -20484.740546    424.422496
PG21 -15463.218029    460.031433  22137.699354    152.499427
PG22 -16958.784275 -18948.939963   8392.277849    507.999155
PG23  12612.100111 -18741.062009  13843.235913     39.829016
PG24  14811.728994  -6401.127715  20676.854495   -247.217473
PG25  18315.670396 -17426.636326  -7998.262069    454.089256
PG26 -10840.430923 -11755.788080 -21345.041494    237.393573
PG27 -23329.254792 -13148.825854    332.595879      3.423080
PG28  -5642.430085 -25022.012213  -6921.879165     83.378618
PG29  10664.577037 -10660.268570 -21925.403696   -604.696692
PG30    -76.361970  26412.371915    265.414056   -506.571101
PG31 -11332.985984 -17311.064485 -16583.107161   -219.457508
PG32 -11478.146428 -18767.940966  15205.899840   -514.469706
PJ02 -31153.528607  27715.572472  11133.639431     -1.071376
PJ03 -24899.199400  26398.548277  26639.506403      0.056233
PJ04 -31615.207055  21532.448709 -12476.979649     96.303599
PR01 -21768.695327  -7317.345152  11088.113423     60.745088
PR02 -24525.456997    207.816435  -7081.736754    -22.628693
PR03 -12928.770886   8142.705112 -20396.797380     80.938356
PR04   5516.254890  11117.000518 -22254.277430    193.771916
PR05  20910.741689   8308.209305 -11982.633835    115.253114
PR07  12007.178811  -8464.671966  20879.896168     59.449295
PR08  -5801.476533 -11232.034416  22218.922652    -71.534483
PR09  17058.315304 -10646.127955  15768.561373    129.410669
PR11   5222.967255 -19662.760268 -15385.238446    -96.195425
PR12  -9119.634177  -6197.626332 -22971.712964     28.756644
PR13 -16581.313593   8832.806791 -17261.486717    -36.747291
PR14 -14875.737330  20704.827328    315.515808     24.891670
PR15  -4338.209583  19109.914010  16348.703960     88.090770
PR16   8867.908562   6320.089962  23080.940808     16.328561
PR17  -3051.170011  15880.062174  19744.481819     -3.054734
PR18   6591.657972  23742.385910   6514.500812     89.951698
PR19  12022.238748  20698.127849  -8834.044938   -238.668199
PR20  11678.840351   2626.768489 -22517.893863    -95.979725
PR21   2361.719653 -16773.050074 -19066.884112    -20.273814
PR22  -6250.636277 -24121.329806  -5462.362059     89.655649
PR24 -12011.331596  -1398.153597  22466.357135    -15.061386
PR25   4096.157164 -15688.070773 -19684.057293     57.175798
EOF
